#aV2011 12 20  0  0   .00000000      96 DD+AD WGS84 FIT  NGA
## 1667 172800.00000000   900.00000000 55915  .0000000000000
+   31     1  2  3  4  5  6  7  8  9 10 11 12 13 14 15 16 17
+         18 19 20 21 22 23 25 26 27 28 29 30 31 32  0  0  0
+          0  0  0  0  0  0  0  0  0  0  0  0  0  0  0  0  0
+          0  0  0  0  0  0  0  0  0  0  0  0  0  0  0  0  0
+          0  0  0  0  0  0  0  0  0  0  0  0  0  0  0  0  0
++         0  0  0  0  0  0  0  0  0  0  0  0  0  0  0  0  0
++         0  0  0  0  0  0  0  0  0  0  0  0  0  0  0  0  0
++         0  0  0  0  0  0  0  0  0  0  0  0  0  0  0  0  0
++         0  0  0  0  0  0  0  0  0  0  0  0  0  0  0  0  0
++         0  0  0  0  0  0  0  0  0  0  0  0  0  0  0  0  0
%c cc cc ccc ccc cccc cccc cccc cccc ccccc ccccc ccccc ccccc
%c cc cc ccc ccc cccc cccc cccc cccc ccccc ccccc ccccc ccccc
%f  0.0000000  0.000000000  0.00000000000  0.000000000000000
%f  0.0000000  0.000000000  0.00000000000  0.000000000000000
%i    0    0    0    0      0      0      0      0         0
%i    0    0    0    0      0      0      0      0         0
/*      NGA, ST. LOUIS,MO.                                  
/*   EPHEMERIS COMPUTED FROM  3 DAYS OF DATA                
/* CCCCCCCCCCCCCCCCCCCCCCCCCCCCCCCCCCCCCCCCCCCCCCCCCCCCCCCCC
/* CCCCCCCCCCCCCCCCCCCCCCCCCCCCCCCCCCCCCCCCCCCCCCCCCCCCCCCCC
*  2011 12 20 17 15   .00000000                                                 
P  1  19046.881564  13498.474712 -12693.975370    149.936203                    
V  1 -16198.886117  -1351.868361 -25767.143271       .155526                    
P  2   4388.367039 -15132.335257  21448.710502    371.076540                    
V  2  26439.678721   6171.511253  -1559.623334       .017072                    
P  3  -7806.037110  23414.175861  -9877.149714    811.035436                    
V  3  -9870.741884   7743.913435  27710.973432       .052326                    
P  4  18256.049404  -8637.873167  17175.254149     38.935729                    
V  4  21167.572407   7049.943227 -18363.153669       .112300                    
P  5  -1357.359584 -25102.054409   8352.138282   -260.332138                    
V  5   5906.527372   9378.383126  29192.007410      -.047830                    
P  6 -12797.140607  22237.573840  -6178.643632     17.035333                    
V  6  -8017.421350   3838.234100  30045.525541       .038231                    
P  7  25964.904591   6177.967773   -455.320935     44.546823                    
V  7     58.199782   2236.106490  31904.005046       .024020                    
P  8  24242.713968    373.210853 -11439.073836       .204293                    
V  8  13286.485781   5550.628111  27641.559158       .001174                    
P  9 -15506.283170 -14603.882689 -16395.520705    126.292106                    
V  9  19572.336984   3039.630177 -21984.576114       .025351                    
P 10  12094.066284 -11350.355798  20423.814374    -22.815198                    
V 10   8249.243567  25331.067896   9477.544395      -.012829                    
P 11  13936.095856  14253.494543 -18057.996580   -214.985301                    
V 11 -22316.426086   2989.886755 -14837.816252      -.036673                    
P 12 -11699.183808 -22650.368104   7776.968689     41.752925                    
V 12   -701.086485  -9972.372469 -29963.118925       .022347                    
P 13  17879.422253   1296.811709  19490.554977    235.228458                    
V 13 -18025.516640  17273.516162  15199.840473      -.020466                    
P 14 -21131.314221  15039.520040  -5190.195553    186.588014                    
V 14   3431.852514  -6325.049712 -31370.436723       .016327                    
P 15  -3954.123840 -17008.692489 -19953.957959    -96.326557                    
V 15  18049.868353 -17987.386898  11949.240269       .008564                    
P 16    -65.297554  24737.163052   9265.290745   -214.882566                    
V 16  -5133.267541 -10876.259481  29341.759001      -.018818                    
P 17  21207.369291 -13944.934986  -7232.763004    159.464409                    
V 17  -4699.822321   8678.733663 -30118.660991      -.021398                    
P 18 -16785.096233  -6327.866655 -19353.252496    172.795396                    
V 18  -5622.616833 -24720.513486  12376.647057       .018348                    
P 19    -83.099933  18172.231012 -19274.940725   -217.135208                    
V 19 -19312.295048  15198.251212  14800.453570      -.039289                    
P 20  13709.856572  21245.996401   8098.643999     58.391073                    
V 20    192.002466  11062.932544 -28711.178947       .007363                    
P 21 -26303.584351  -3454.783104  -3878.055059   -192.142757                    
V 21  -4484.089803  -4425.836595  30192.495376      -.024603                    
P 22 -13029.976905  10311.606436 -20527.758383    143.095973                    
V 22  -8193.783527 -25333.922261  -7570.558707      -.000333                    
P 23  11315.826010  10156.762157  21807.589634    249.163920                    
V 23 -19274.637857  19779.922091    437.405133      -.033359                    
P 25 -15889.061128 -14173.370805  15877.386083     30.353360                    
V 25  -4293.514225 -19794.256891 -21898.912200       .005412                    
P 26   8820.038806 -20734.130656 -14341.544009   -268.640347                    
V 26  13963.239000 -10343.700864  24957.975624      -.139865                    
P 27  -9794.827927 -14942.798856 -19152.268375    337.786176                    
V 27  25241.447092   3913.494101 -15047.405896       .038332                    
P 28  13434.328665  -6121.011518 -21522.417587     94.915497                    
V 28   7305.964497  27662.410236  -3464.090745       .034631                    
P 29 -17478.314770  -2318.418659  19915.566175    267.777799                    
V 29  17210.759875 -18382.751359  13042.453726       .034256                    
P 30  -4899.019273  19479.560786  17018.753830     17.070689                    
V 30 -10260.930588 -19902.501312  19433.744523      -.123391                    
P 31 -15360.685066   9707.834400  19656.078227    184.997404                    
V 31 -23437.432679  -6801.145355 -14896.662080       .048790                    
P 32   6959.925965  25817.952099   2245.044069   -380.147709                    
V 32  -2067.279556   3012.006187 -31118.394506      -.058694                    
EOF
